$$SOE
2461302.500000000, A.D. 2026-Sep-19 00:00:00.0000, 1.863538325079287E+08, -4.307964037466522E+08, 2.436212147971189E+07,
2461309.500000000, A.D. 2026-Sep-26 00:00:00.0000, 1.954147579899414E+08, -4.270885852475277E+08, 2.252457895645499E+07,
2461316.500000000, A.D. 2026-Oct-03 00:00:00.0000, 2.043844562984422E+08, -4.231813752154659E+08, 2.067651839990449E+07,
2461323.500000000, A.D. 2026-Oct-10 00:00:00.0000, 2.132588577699693E+08, -4.190768468902387E+08, 1.881881485472441E+07,
2461330.500000000, A.D. 2026-Oct-17 00:00:00.0000, 2.220339422043856E+08, -4.147771496921203E+08, 1.695234517140907E+07,
2461337.500000000, A.D. 2026-Oct-24 00:00:00.0000, 2.307057397768456E+08, -4.102845082123643E+08, 1.507798772890785E+07,
2461344.500000000, A.D. 2026-Oct-31 00:00:00.0000, 2.392703320194154E+08, -4.056012213723788E+08, 1.319662213859165E+07,
2461351.500000000, A.D. 2026-Nov-07 00:00:00.0000, 2.477238532130057E+08, -4.007296616770892E+08, 1.130912890449417E+07,
2461358.500000000, A.D. 2026-Nov-14 00:00:00.0000, 2.560624923921787E+08, -3.956722736756042E+08, 9.416389094087213E+06,
2461365.500000000, A.D. 2026-Nov-21 00:00:00.0000, 2.642824941519709E+08, -3.904315709481081E+08, 7.519284241636842E+06,
2461372.500000000, A.D. 2026-Nov-28 00:00:00.0000, 2.723801572586621E+08, -3.850101346264797E+08, 5.618696329822510E+06,
2461379.500000000, A.D. 2026-Dec-05 00:00:00.0000, 2.803518346846520E+08, -3.794106141034341E+08, 3.715507463948101E+06,
2461386.500000000, A.D. 2026-Dec-12 00:00:00.0000, 2.881939352339904E+08, -3.736357268187231E+08, 1.810599477995157E+06,
2461393.500000000, A.D. 2026-Dec-19 00:00:00.0000, 2.959029248727136E+08, -3.676882571162399E+08, -9.514635368375480E+04,
2461400.500000000, A.D. 2026-Dec-26 00:00:00.0000, 3.034753276225339E+08, -3.615710550401317E+08, -2.000849556818947E+06,
2461407.500000000, A.D. 2027-Jan-02 00:00:00.0000, 3.109077262943419E+08, -3.552870352607535E+08, -3.905630690714076E+06,
2461414.500000000, A.D. 2027-Jan-09 00:00:00.0000, 3.181967631786679E+08, -3.488391761102458E+08, -5.808611583891958E+06,
2461421.500000000, A.D. 2027-Jan-16 00:00:00.0000, 3.253391407279946E+08, -3.422305187188315E+08, -7.708915574527353E+06,
2461428.500000000, A.D. 2027-Jan-23 00:00:00.0000, 3.323316222758476E+08, -3.354641662910160E+08, -9.605667763316169E+06,
2461435.500000000, A.D. 2027-Jan-30 00:00:00.0000, 3.391710329792863E+08, -3.285432835685163E+08, -1.149799530014820E+07,
2461442.500000000, A.D. 2027-Feb-06 00:00:00.0000, 3.458542614092014E+08, -3.214710961390611E+08, -1.338502771597397E+07,
2461449.500000000, A.D. 2027-Feb-13 00:00:00.0000, 3.523782613284118E+08, -3.142508883717072E+08, -1.526589715817463E+07,
2461456.500000000, A.D. 2027-Feb-20 00:00:00.0000, 3.587400512932267E+08, -3.068860007705395E+08, -1.713973837758960E+07,
2461463.500000000, A.D. 2027-Feb-27 00:00:00.0000, 3.649367134728718E+08, -2.993798299596891E+08, -1.900568885831073E+07,
2461470.500000000, A.D. 2027-Mar-06 00:00:00.0000, 3.709653947044192E+08, -2.917358293752751E+08, -2.086288921034542E+07,
2461477.500000000, A.D. 2027-Mar-13 00:00:00.0000, 3.768233081840001E+08, -2.839575086139328E+08, -2.271048351123041E+07,
2461484.500000000, A.D. 2027-Mar-20 00:00:00.0000, 3.825077346659700E+08, -2.760484322722765E+08, -2.454761956155273E+07,
2461491.500000000, A.D. 2027-Mar-27 00:00:00.0000, 3.880160233729348E+08, -2.680122188258482E+08, -2.637344911809912E+07,
2461498.500000000, A.D. 2027-Apr-03 00:00:00.0000, 3.933455928204154E+08, -2.598525395948863E+08, -2.818712812746458E+07,
2461505.500000000, A.D. 2027-Apr-10 00:00:00.0000, 3.984939316181576E+08, -2.515731177736340E+08, -2.998781696415913E+07,
2461512.500000000, A.D. 2027-Apr-17 00:00:00.0000, 4.034585992704157E+08, -2.431777275374745E+08, -3.177468067669223E+07,
2461519.500000000, A.D. 2027-Apr-24 00:00:00.0000, 4.082372270536397E+08, -2.346701932897881E+08, -3.354688925419991E+07,
2461526.500000000, A.D. 2027-May-01 00:00:00.0000, 4.128275192695377E+08, -2.260543890193408E+08, -3.530361793889701E+07,
2461533.500000000, A.D. 2027-May-08 00:00:00.0000, 4.172272551799443E+08, -2.173342370173331E+08, -3.704404755130929E+07,
2461540.500000000, A.D. 2027-May-15 00:00:00.0000, 4.214342901275295E+08, -2.085137049987647E+08, -3.876736461303408E+07,
2461547.500000000, A.D. 2027-May-22 00:00:00.0000, 4.254465542795065E+08, -1.995968042188425E+08, -4.047276133548719E+07,
2461554.500000000, A.D. 2027-May-29 00:00:00.0000, 4.292620523503501E+08, -1.905875900511276E+08, -4.215943590250198E+07,
2461561.500000000, A.D. 2027-Jun-05 00:00:00.0000, 4.328788651895065E+08, -1.814901618941501E+08, -4.382659287209204E+07,
2461568.500000000, A.D. 2027-Jun-12 00:00:00.0000, 4.362951512283140E+08, -1.723086619745336E+08, -4.547344347813886E+07,
2461575.500000000, A.D. 2027-Jun-19 00:00:00.0000, 4.395091474558772E+08, -1.630472739818738E+08, -4.709920587818211E+07,
2461582.500000000, A.D. 2027-Jun-26 00:00:00.0000, 4.425191702031912E+08, -1.537102217964187E+08, -4.870310539430436E+07,
2461589.500000000, A.D. 2027-Jul-03 00:00:00.0000, 4.453236158672324E+08, -1.443017683004523E+08, -5.028437475847068E+07,
2461596.500000000, A.D. 2027-Jul-10 00:00:00.0000, 4.479209616115046E+08, -1.348262142636052E+08, -5.184225436487323E+07,
2461603.500000000, A.D. 2027-Jul-17 00:00:00.0000, 4.503097660790679E+08, -1.252878973399490E+08, -5.337599253567011E+07,
2461610.500000000, A.D. 2027-Jul-24 00:00:00.0000, 4.524886702737495E+08, -1.156911912387311E+08, -5.488484581945752E+07,
2461617.500000000, A.D. 2027-Jul-31 00:00:00.0000, 4.544563990196331E+08, -1.060405048317288E+08, -5.636807934071356E+07,
2461624.500000000, A.D. 2027-Aug-07 00:00:00.0000, 4.562117627977092E+08, -9.634028004318777E+07, -5.782496708746883E+07,
2461631.500000000, A.D. 2027-Aug-14 00:00:00.0000, 4.577536576602834E+08, -8.659498877451190E+07, -5.925479194705172E+07,
2461638.500000000, A.D. 2027-Aug-21 00:00:00.0000, 4.590810638418174E+08, -7.680913222841787E+07, -6.065684582188277E+07,
2461645.500000000, A.D. 2027-Aug-28 00:00:00.0000, 4.601930464951310E+08, -6.698724142872037E+07, -6.203043004164881E+07,
2461652.500000000, A.D. 2027-Sep-04 00:00:00.0000, 4.610887573703639E+08, -5.713387643181919E+07, -6.337485575900669E+07,
2461659.500000000, A.D. 2027-Sep-11 00:00:00.0000, 4.617674360408346E+08, -4.725362489004365E+07, -6.468944425503413E+07,
2461666.500000000, A.D. 2027-Sep-18 00:00:00.0000, 4.622284108081315E+08, -3.735110061600771E+07, -6.597352721991313E+07,
2461673.500000000, A.D. 2027-Sep-25 00:00:00.0000, 4.624710995141315E+08, -2.743094222421872E+07, -6.722644703625204E+07,
2461680.500000000, A.D. 2027-Oct-02 00:00:00.0000, 4.624950103338757E+08, -1.749781182058343E+07, -6.844755706974815E+07,
2461687.500000000, A.D. 2027-Oct-09 00:00:00.0000, 4.622997425710226E+08, -7.556393742297444E+06, -6.963622196977633E+07,
2461694.500000000, A.D. 2027-Oct-16 00:00:00.0000, 4.618849875187384E+08, 2.388606598852664E+06, -7.079181799047780E+07,
2461701.500000000, A.D. 2027-Oct-23 00:00:00.0000, 4.612505296454148E+08, 1.233246376539531E+07, -7.191373335697997E+07,
2461708.500000000, A.D. 2027-Oct-30 00:00:00.0000, 4.603962484783932E+08, 2.227043384695912E+07, -7.300136866131319E+07,
2461715.500000000, A.D. 2027-Nov-06 00:00:00.0000, 4.593221200212085E+08, 3.219775764756995E+07, -7.405413708912568E+07,
2461722.500000000, A.D. 2027-Nov-13 00:00:00.0000, 4.580282157205227E+08, 4.210966343299225E+07, -7.507146446536329E+07,
2461729.500000000, A.D. 2027-Nov-20 00:00:00.0000, 4.565147018848214E+08, 5.200136705176857E+07, -7.605278956415324E+07,
2461736.500000000, A.D. 2027-Nov-27 00:00:00.0000, 4.547818411697546E+08, 6.186807239478663E+07, -7.699756458867985E+07,
2461743.500000000, A.D. 2027-Dec-04 00:00:00.0000, 4.528299941046891E+08, 7.170497310883126E+07, -7.790525556050280E+07,
2461750.500000000, A.D. 2027-Dec-11 00:00:00.0000, 4.506596201090242E+08, 8.150725460141443E+07, -7.877534264656267E+07,
2461757.500000000, A.D. 2027-Dec-18 00:00:00.0000, 4.482712782723401E+08, 9.127009599862103E+07, -7.960732047677940E+07,
2461764.500000000, A.D. 2027-Dec-25 00:00:00.0000, 4.456656280491439E+08, 1.009886720542938E+08, -8.040069846625182E+07,
2461771.500000000, A.D. 2028-Jan-01 00:00:00.0000, 4.428434299079033E+08, 1.106581550252730E+08, -8.115500114437781E+07,
$$EOE